{
  "norad_id": 64171,
  "name": "STARLINK-34228",
  "history": [
    {
      "epoch": "2026-04-11T19:56:09.138048Z",
      "apogee_km": 475.88926031959363,
      "perigee_km": 474.52681532607403,
      "latitude_deg": -2.6632094446204585e-06,
      "longitude_deg": 157.7930071141177,
      "height_km": 475.9946072610105,
      "semi_major_axis_km": 6853.345037822834,
      "eccentricity": 9.94e-05,
      "inclination_deg": 53.1584,
      "raan_deg": 296.8756,
      "arg_perigee_deg": 80.5602,
      "mean_anomaly_deg": 279.5511,
      "mean_motion_rev_day": 15.30202355
    },
    {
      "epoch": "2026-04-12T19:26:57.091200Z",
      "apogee_km": 475.9844647399168,
      "perigee_km": 474.4201215128669,
      "latitude_deg": -4.4931495276018474e-05,
      "longitude_deg": 159.58011239146825,
      "height_km": 476.19462505882956,
      "semi_major_axis_km": 6853.339293126392,
      "eccentricity": 0.00011413,
      "inclination_deg": 53.1585,
      "raan_deg": 292.3282,
      "arg_perigee_deg": 96.919,
      "mean_anomaly_deg": 263.194,
      "mean_motion_rev_day": 15.30204279
    },
    {
      "epoch": "2026-04-14T18:28:33.033792Z",
      "apogee_km": 476.13358432089535,
      "perigee_km": 474.29003349129925,
      "latitude_deg": 2.2694737207201592e-05,
      "longitude_deg": 163.14458771355044,
      "height_km": 476.07546247339246,
      "semi_major_axis_km": 6853.3488089060975,
      "eccentricity": 0.0001345,
      "inclination_deg": 53.159,
      "raan_deg": 283.2237,
      "arg_perigee_deg": 87.8731,
      "mean_anomaly_deg": 272.2424,
      "mean_motion_rev_day": 15.30201092
    },
    {
      "epoch": "2026-04-15T19:33:24.216768Z",
      "apogee_km": 476.08915393749066,
      "perigee_km": 474.441596006548,
      "latitude_deg": -1.6137525765563412e-05,
      "longitude_deg": 141.04646304782614,
      "height_km": 476.3423570413059,
      "semi_major_axis_km": 6853.402374972019,
      "eccentricity": 0.0001202,
      "inclination_deg": 53.1591,
      "raan_deg": 278.3689,
      "arg_perigee_deg": 102.5414,
      "mean_anomaly_deg": 257.5721,
      "mean_motion_rev_day": 15.30183152
    },
    {
      "epoch": "2026-04-16T17:30:09.846432Z",
      "apogee_km": 476.10237246048473,
      "perigee_km": 474.39039729094293,
      "latitude_deg": 5.923422680230942e-06,
      "longitude_deg": 166.7084671016383,
      "height_km": 476.2421969608182,
      "semi_major_axis_km": 6853.383384875713,
      "eccentricity": 0.0001249,
      "inclination_deg": 53.1597,
      "raan_deg": 274.1223,
      "arg_perigee_deg": 96.5563,
      "mean_anomaly_deg": 263.558,
      "mean_motion_rev_day": 15.30189512
    },
    {
      "epoch": "2026-04-17T20:09:03.750336Z",
      "apogee_km": 475.97541676549645,
      "perigee_km": 474.3806503571868,
      "latitude_deg": -2.7829209265297687e-06,
      "longitude_deg": 120.73155543295191,
      "height_km": 476.06328872516053,
      "semi_major_axis_km": 6853.315033561341,
      "eccentricity": 0.00011635,
      "inclination_deg": 53.1602,
      "raan_deg": 268.9644,
      "arg_perigee_deg": 89.0664,
      "mean_anomaly_deg": 271.047,
      "mean_motion_rev_day": 15.30212404
    },
    {
      "epoch": "2026-04-18T18:05:47.651136Z",
      "apogee_km": 475.8888206495785,
      "perigee_km": 474.39754688159064,
      "latitude_deg": -3.0991605910312024e-05,
      "longitude_deg": 146.40044378636063,
      "height_km": 476.0268487852335,
      "semi_major_axis_km": 6853.280183765584,
      "eccentricity": 0.0001088,
      "inclination_deg": 53.1605,
      "raan_deg": 264.7175,
      "arg_perigee_deg": 88.8684,
      "mean_anomaly_deg": 271.2441,
      "mean_motion_rev_day": 15.30224076
    },
    {
      "epoch": "2026-04-19T17:36:35.678592Z",
      "apogee_km": 475.7467766632808,
      "perigee_km": 474.7174006261657,
      "latitude_deg": 2.274297582693285e-06,
      "longitude_deg": 148.18229464547113,
      "height_km": 476.3329389439161,
      "semi_major_axis_km": 6853.369088644723,
      "eccentricity": 7.51e-05,
      "inclination_deg": 53.1624,
      "raan_deg": 260.1651,
      "arg_perigee_deg": 113.0784,
      "mean_anomaly_deg": 247.0296,
      "mean_motion_rev_day": 15.301943
    },
    {
      "epoch": "2026-04-20T09:17:08.016576Z",
      "apogee_km": 475.9658269376441,
      "perigee_km": 474.51099240567873,
      "latitude_deg": 1.452833267801447e-05,
      "longitude_deg": -90.62831506206172,
      "height_km": 476.20568940808664,
      "semi_major_axis_km": 6853.375409671661,
      "eccentricity": 0.00010614,
      "inclination_deg": 53.1603,
      "raan_deg": 257.133,
      "arg_perigee_deg": 95.4343,
      "mean_anomaly_deg": 264.6779,
      "mean_motion_rev_day": 15.30192183
    },
    {
      "epoch": "2026-04-21T13:30:05.020704Z",
      "apogee_km": 475.77918532767126,
      "perigee_km": 474.59356038416627,
      "latitude_deg": 8.381052035127883e-06,
      "longitude_deg": -160.48742281745092,
      "height_km": 476.16840455215083,
      "semi_major_axis_km": 6853.323372855918,
      "eccentricity": 8.65e-05,
      "inclination_deg": 53.1609,
      "raan_deg": 251.6702,
      "arg_perigee_deg": 98.0781,
      "mean_anomaly_deg": 262.0318,
      "mean_motion_rev_day": 15.30209611
    },
    {
      "epoch": "2026-04-22T16:08:59.793792Z",
      "apogee_km": 475.8764084280947,
      "perigee_km": 474.58386338626315,
      "latitude_deg": -3.509415738180533e-05,
      "longitude_deg": 153.53550382834536,
      "height_km": 475.92923206727926,
      "semi_major_axis_km": 6853.367135907179,
      "eccentricity": 9.43e-05,
      "inclination_deg": 53.1581,
      "raan_deg": 246.5158,
      "arg_perigee_deg": 72.0397,
      "mean_anomaly_deg": 288.0706,
      "mean_motion_rev_day": 15.30194954
    },
    {
      "epoch": "2026-04-23T07:49:31.738656Z",
      "apogee_km": 476.30424642785874,
      "perigee_km": 474.11830246224235,
      "latitude_deg": -2.932443104056865e-05,
      "longitude_deg": -85.27726840939074,
      "height_km": 475.80922750466397,
      "semi_major_axis_km": 6853.34827444505,
      "eccentricity": 0.00015948,
      "inclination_deg": 53.1575,
      "raan_deg": 243.4799,
      "arg_perigee_deg": 74.0963,
      "mean_anomaly_deg": 286.0213,
      "mean_motion_rev_day": 15.30201271
    },
    {
      "epoch": "2026-04-24T19:52:44.828832Z",
      "apogee_km": 475.9424258131321,
      "perigee_km": 474.4305826480986,
      "latitude_deg": 5.101956694403039e-05,
      "longitude_deg": 85.46057688674487,
      "height_km": 475.8809708013527,
      "semi_major_axis_km": 6853.323504230615,
      "eccentricity": 0.0001103,
      "inclination_deg": 53.1581,
      "raan_deg": 236.5029,
      "arg_perigee_deg": 74.3682,
      "mean_anomaly_deg": 285.7441,
      "mean_motion_rev_day": 15.30209567
    },
    {
      "epoch": "2026-04-25T14:41:23.114112Z",
      "apogee_km": 475.9411768708387,
      "perigee_km": 474.48689578093126,
      "latitude_deg": -6.276054300193855e-05,
      "longitude_deg": 158.8880445980393,
      "height_km": 475.99977509170014,
      "semi_major_axis_km": 6853.351036325885,
      "eccentricity": 0.0001061,
      "inclination_deg": 53.1575,
      "raan_deg": 232.8625,
      "arg_perigee_deg": 81.1093,
      "mean_anomaly_deg": 279.0027,
      "mean_motion_rev_day": 15.30200346
    },
    {
      "epoch": "2026-04-26T17:20:17.829312Z",
      "apogee_km": 476.0481019588178,
      "perigee_km": 474.386300632088,
      "latitude_deg": 1.397268682971444e-05,
      "longitude_deg": 112.90760583027654,
      "height_km": 475.92338146865234,
      "semi_major_axis_km": 6853.354201295453,
      "eccentricity": 0.00012124,
      "inclination_deg": 53.1585,
      "raan_deg": 227.7044,
      "arg_perigee_deg": 76.6497,
      "mean_anomaly_deg": 283.4639,
      "mean_motion_rev_day": 15.30199286
    },
    {
      "epoch": "2026-04-27T13:42:59.368608Z",
      "apogee_km": 475.99881051796365,
      "perigee_km": 474.4540623993862,
      "latitude_deg": -1.3121527393879138e-05,
      "longitude_deg": 162.45450271068376,
      "height_km": 476.2050445305244,
      "semi_major_axis_km": 6853.363436458674,
      "eccentricity": 0.0001127,
      "inclination_deg": 53.1586,
      "raan_deg": 223.7613,
      "arg_perigee_deg": 95.9811,
      "mean_anomaly_deg": 264.1318,
      "mean_motion_rev_day": 15.30196193
    },
    {
      "epoch": "2026-04-28T06:57:34.930368Z",
      "apogee_km": 476.1011512013147,
      "perigee_km": 474.25760909505516,
      "latitude_deg": 1.2182678501552343e-05,
      "longitude_deg": -100.23850541571426,
      "height_km": 476.07491645326405,
      "semi_major_axis_km": 6853.316380148185,
      "eccentricity": 0.0001345,
      "inclination_deg": 53.1599,
      "raan_deg": 220.4246,
      "arg_perigee_deg": 89.8491,
      "mean_anomaly_deg": 270.2664,
      "mean_motion_rev_day": 15.30211953
    },
    {
      "epoch": "2026-04-29T15:52:41.883168Z",
      "apogee_km": 476.0689793541951,
      "perigee_km": 474.3090452342376,
      "latitude_deg": 4.190132096383811e-05,
      "longitude_deg": 118.26072861501598,
      "height_km": 475.85250334318835,
      "semi_major_axis_km": 6853.3260122942165,
      "eccentricity": 0.0001284,
      "inclination_deg": 53.161,
      "raan_deg": 214.0547,
      "arg_perigee_deg": 74.5286,
      "mean_anomaly_deg": 285.5857,
      "mean_motion_rev_day": 15.30208727
    },
    {
      "epoch": "2026-04-30T13:49:16.580640Z",
      "apogee_km": 474.84829412090403,
      "perigee_km": 472.8247692975192,
      "latitude_deg": 2.0480246475487525e-05,
      "longitude_deg": 143.9652738528144,
      "height_km": 474.56598354307533,
      "semi_major_axis_km": 6851.973531709211,
      "eccentricity": 0.00014766,
      "inclination_deg": 53.1627,
      "raan_deg": 209.805,
      "arg_perigee_deg": 80.3939,
      "mean_anomaly_deg": 279.7229,
      "mean_motion_rev_day": 15.30661811
    }
  ]
}